[{"OBJECT_NAME":"STARLINK-2113","OBJECT_ID":"2021-005AV","EPOCH":"2026-03-09T22:00:01.999584","MEAN_MOTION":15.5817622,"ECCENTRICITY":0.00052189,"INCLINATION":53.0529,"RA_OF_ASC_NODE":15.2698,"ARG_OF_PERICENTER":117.6872,"MEAN_ANOMALY":84.8234,"EPHEMERIS_TYPE":0,"CLASSIFICATION_TYPE":"U","NORAD_CAT_ID":47392,"ELEMENT_SET_NO":999,"REV_AT_EPOCH":587,"BSTAR":0.0015913714,"MEAN_MOTION_DOT":0.00123694,"MEAN_MOTION_DDOT":0},{"OBJECT_NAME":"OBJECT B","OBJECT_ID":"2022-019B","EPOCH":"2026-03-09T23:23:33.758592","MEAN_MOTION":15.61615531,"ECCENTRICITY":0.00072913,"INCLINATION":97.3527,"RA_OF_ASC_NODE":156.333,"ARG_OF_PERICENTER":133.2993,"MEAN_ANOMALY":226.8874,"EPHEMERIS_TYPE":0,"CLASSIFICATION_TYPE":"U","NORAD_CAT_ID":51825,"ELEMENT_SET_NO":999,"REV_AT_EPOCH":22421,"BSTAR":0.00081639772,"MEAN_MOTION_DOT":0.00070599,"MEAN_MOTION_DDOT":0}]
